INTELSAT 9 (IS-9)       
1 26451U 00043A   25172.91086463  .00000018  00000+0  00000+0 0  9996
2 26451   9.5917  52.4662 0001188 131.3163  79.5237  0.99449572 40525
INTELSAT 10 (IS-10)     
1 26766U 01019A   25172.77614162 -.00000005  00000+0  00000+0 0  9993
2 26766   8.2100  62.9327 0003131  11.7400 181.0341  1.00270725 88312
INTELSAT 902 (IS-902)   
1 26900U 01039A   25171.70685964 -.00000275  00000+0  00000+0 0  9994
2 26900   5.2030  76.2192 0004275  13.6999  23.6185  1.00273272 87072
INTELSAT 904 (IS-904)   
1 27380U 02007A   25173.49589666 -.00000199  00000+0  00000+0 0  9998
2 27380   6.0180  73.5087 0002506  26.4515 321.5702  1.00308682 48159
DIRECTV 5 (TEMPO 1)     
1 27426U 02023A   25173.46797294 -.00000052  00000+0  00000+0 0  9990
2 27426   3.9563  79.8438 0003241  26.2581 223.1373  1.00271405 84511
INTELSAT 905 (IS-905)   
1 27438U 02027A   25173.40283340  .00000098  00000+0  00000+0 0  9992
2 27438   5.8464  74.1470 0002246  16.3964 188.0850  1.00272456 47759
GALAXY 3C (G-3C)        
1 27445U 02030A   25173.55404243 -.00000147  00000+0  00000+0 0  9993
2 27445   2.8060  82.5305 0003081  49.1091 243.9452  1.00270943 42886
INTELSAT 906 (IS-906)   
1 27513U 02041A   25173.37144177  .00000017  00000+0  00000+0 0  9993
2 27513   4.8872  77.3842 0003985  14.9318  16.3505  1.00272111 83423
GALAXY 23 (G-23)        
1 27854U 03034A   25173.54442029  .00000128  00000+0  00000+0 0  9993
2 27854   2.2670  84.1660 0000739 133.3304 106.0695  0.99763099 80137
GALAXY 13 (HORIZONS-1)  
1 27954U 03044A   25173.54311708  .00000140  00000+0  00000+0 0  9998
2 27954   0.4886  89.5375 0002109 355.7197 231.2328  1.00273427 42969
INTELSAT 10-02          
1 28358U 04022A   25173.42967944 -.00000003  00000+0  00000+0 0  9999
2 28358   0.0143 352.8320 0000827  71.5027   0.2381  1.00270292 76941
XM-3 (RHYTHM)           
1 28626U 05008A   25173.48434155 -.00000191  00000+0  00000+0 0  9999
2 28626   0.0442 157.0293 0001098 176.3913  25.5215  1.00267093 39012
DIRECTV 8               
1 28659U 05019A   25173.54926400  .00000009  00000+0  00000+0 0  9990
2 28659   0.0041  82.2491 0002868  21.2072 246.2031  1.00271784 73469
GALAXY 28 (G-28)        
1 28702U 05022A   25173.55525876 -.00000181  00000+0  00000+0 0  9998
2 28702   2.3720  83.4656 0002466  22.5296 276.1851  1.00271535 48377
GALAXY 16 (G-16)        
1 29236U 06023A   25173.51448756 -.00000119  00000+0  00000+0 0  9991
2 29236   0.0133  48.2721 0002542  57.3858 251.4901  1.00270720 69369
DIRECTV 9S              
1 29494U 06043A   25173.55282611 -.00000107  00000+0  00000+0 0  9996
2 29494   1.4913  85.3895 0002770  10.2823 273.1229  1.00271533 47771
GALAXY 17 (G-17)        
1 31307U 07016B   25173.55604068 -.00000200  00000+0  00000+0 0  9991
2 31307   2.0607  84.5549 0002341  38.4859 263.1051  1.00270613 66193
DIRECTV 10              
1 31862U 07032A   25173.48346742 -.00000095  00000+0  00000+0 0  9991
2 31862   0.0163 244.2111 0000501 302.6382 155.3201  1.00271099 41985
INTELSAT 11 (IS-11)     
1 32253U 07044B   25173.55447684 -.00000007  00000+0  00000+0 0  9997
2 32253   2.6270  83.1599 0003481  73.9973 220.8191  0.99046561 64882
HORIZONS-2              
1 32388U 07063B   25173.48686109 -.00000246  00000+0  00000+0 0  9991
2 32388   1.6726  85.1878 0001906  23.6089 263.5877  1.00270858 64200
DIRECTV 11              
1 32729U 08013A   25173.51448819 -.00000117  00000+0  00000+0 0  9991
2 32729   0.0182 177.2829 0000646 134.6640  45.0217  1.00266530 41986
GALAXY 18 (G-18)        
1 32951U 08024A   25173.54848208  .00000033  00000+0  00000+0 0  9995
2 32951   0.0273  18.7423 0002613  73.1002 253.5688  1.00269735 42246
INTELSAT 25 (IS-25)     
1 33153U 08034A   25173.49520161 -.00000218  00000+0  00000+0 0  9996
2 33153   1.7794  84.8527 0003055  21.4016 311.4195  1.00267547 62088
GALAXY 19 (G-19)        
1 33376U 08045A   25173.55360803 -.00000131  00000+0  00000+0 0  9991
2 33376   0.0270  22.6781 0002762  84.2024 266.3955  1.00270800 61298
FM-5                    
1 35493U 09034A   25173.55578005 -.00000193  00000+0  00000+0 0  9995
2 35493   0.0137 311.3839 0000296 348.1725  85.3583  1.00279960 43038
INTELSAT 14 (IS-14)     
1 36097U 09064A   25173.49259520 -.00000265  00000+0  00000+0 0  9990
2 36097   0.0089 333.1023 0002323 128.9446 301.2145  1.00271110 56991
INTELSAT 15 (IS-15)     
1 36106U 09067A   25173.58979326 -.00000178  00000+0  00000+0 0  9990
2 36106   0.0195  59.5441 0001895  36.7944 112.1488  1.00271570 37623
DIRECTV 12              
1 36131U 09075A   25173.55247859 -.00000094  00000+0  00000+0 0  9990
2 36131   0.0161  43.4685 0000382 340.0583 343.6134  1.00263649 42944
INTELSAT 16 (IS-16)     
1 36397U 10006A   25173.55777829 -.00000237  00000+0  00000+0 0  9994
2 36397   0.0368 288.7294 0001904 179.3520 287.5083  1.00271013 56041
XM-5                    
1 37185U 10053A   25173.55004594 -.00000016  00000+0  00000+0 0  9999
2 37185   0.0425 279.5159 0000254  96.4172 337.8646  1.00276536 53875
INTELSAT 17 (IS-17)     
1 37238U 10065B   25173.44316816  .00000006  00000+0  00000+0 0  9990
2 37238   0.0347  68.4832 0002527  38.3457  29.5501  1.00272547 49649
INTELSAT 28 (IS-28)     
1 37392U 11016A   25173.42377157 -.00000217  00000+0  00000+0 0  9996
2 37392   0.8752  87.4391 0003826 358.0709 306.2100  1.00271084 49672
INTELSAT 18 (IS-18)     
1 37834U 11056A   25173.53725215  .00000060  00000+0  00000+0 0  9990
2 37834   0.0104   8.7685 0001679  98.0992 177.4862  1.00271740 50200
INTELSAT 22 (IS-22)     
1 38098U 12011A   25173.60461269 -.00000052  00000+0  00000+0 0  9991
2 38098   0.0198  56.9548 0001571  34.8410 108.9903  1.00272571  3580
INTELSAT 19 (IS-19)     
1 38356U 12030A   25173.54280689 -.00000049  00000+0  00000+0 0  9993
2 38356   0.0123  41.9384 0002765  55.2295 175.2129  1.00269397 47904
INTELSAT 20 (IS-20)     
1 38740U 12043A   25173.61033052 -.00000017  00000+0  00000+0 0  9997
2 38740   0.0055  37.3891 0001235 142.5363  19.3205  1.00269473 47148
INTELSAT 21 (IS-21)     
1 38749U 12045A   25173.48998878 -.00000277  00000+0  00000+0 0  9997
2 38749   0.0272  11.4710 0001696  97.1444 280.6995  1.00269655 46912
INTELSAT 23 (IS-23)     
1 38867U 12057A   25173.49094447 -.00000277  00000+0  00000+0 0  9991
2 38867   0.0449 114.6011 0002543 245.7977  34.2463  1.00270949 46341
FM-6                    
1 39360U 13058A   25173.46496001 -.00000009  00000+0  00000+0 0  9994
2 39360   0.0052  47.9877 0001151 102.4843 171.6501  1.00271890 42456
INTELSAT 30 (IS-30)     
1 40271U 14062A   25173.55404243 -.00000142  00000+0  00000+0 0  9998
2 40271   0.0128  21.1090 0001426 350.9497   3.3072  1.00266040  3175
DIRECTV 14              
1 40333U 14078B   25173.51448819 -.00000117  00000+0  00000+0 0  9999
2 40333   0.0039  83.5114 0000466 119.8360 153.5821  1.00270070 38433
DIRECTV 15              
1 40663U 15026A   25173.55247859 -.00000094  00000+0  00000+0 0  9998
2 40663   0.0177  25.5377 0000355 299.4435  42.0157  1.00266934 36856
SKY MEXICO-1            
1 40664U 15026B   25173.55725701 -.00000227  00000+0  00000+0 0  9994
2 40664   0.0237  52.0039 0001836  44.9339 295.8931  1.00270905 36845
INTELSAT 34 (IS-34)     
1 40874U 15039A   25173.56186167 -.00000278  00000+0  00000+0 0  9995
2 40874   0.0172 333.6281 0001662   6.2484  77.8802  1.00268309 36011
INTELSAT 31 (IS-31)     
1 41581U 16035A   25173.55404243 -.00000142  00000+0  00000+0 0  9995
2 41581   0.0142 307.0250 0002072 298.8227 129.5095  1.00266443 33074
INTELSAT 36 (IS-36)     
1 41747U 16053A   25173.44368944 -.00000017  00000+0  00000+0 0  9995
2 41747   0.0114  13.8004 0001781 314.9051 170.3880  1.00271034 32344
INTELSAT 32E (IS-32E)   
1 41945U 17007B   25173.49294272 -.00000261  00000+0  00000+0 0  9993
2 41945   0.0155  55.7135 0001281 285.8773  63.6045  1.00268444 30617
INTELSAT 35E (IS-35E)   
1 42818U 17041A   25173.50808616 -.00000230  00000+0  00000+0 0  9992
2 42818   0.0136 297.9027 0001703 148.1211 333.3301  1.00272253 29201
INTELSAT 37E (IS-37E)   
1 42950U 17059A   25173.42655175 -.00000133  00000+0  00000+0 0  9991
2 42950   0.0253  21.0066 0002401  99.0694 286.3317  1.00271679 28453
AZERSPACE 2 (IS-38)     
1 43632U 18074A   25173.54836439  .00000144  00000+0  00000+0 0  9995
2 43632   0.0185 341.5666 0001245 102.2211  69.7043  1.00270004 24847
HORIZONS-3E             
1 43633U 18074B   25173.58293156 -.00000024  00000+0  00000+0 0  9991
2 43633   0.0222 185.8985 0000882  99.6691   4.2939  1.00269407 24731
AT&T T-16               
1 44333U 19034A   25173.55291299 -.00000107  00000+0  00000+0 0  9991
2 44333   0.0264  72.3327 0000890 265.2390  31.5946  1.00265792 22025
INTELSAT 39 (IS-39)     
1 44476U 19049B   25173.60478326  .00000041  00000+0  00000+0 0  9995
2 44476   0.0161 333.6639 0001025 327.6196 249.4079  1.00269755 21520
GALAXY 30 (G-30)        
1 46114U 20056C   25173.54804769  .00000045  00000+0  00000+0 0  9997
2 46114   0.0040  78.1073 0001703  11.6773 253.4761  1.00266380 17680
GALAXY 33 (G-33)        
1 54026U 22128A   25173.54650542  .00000087  00000+0  00000+0 0  9994
2 54026   0.0247  64.0801 0001607  25.6976 244.9172  1.00270675 10132
GALAXY 34 (G-34)        
1 54027U 22128B   25173.49166671  .00000067  00000+0  00000+0 0  9992
2 54027   0.0103  40.1104 0001358  48.2442 230.5724  1.00270399 10303
GALAXY 31 (G-31)        
1 54243U 22153A   25173.54891649  .00000022  00000+0  00000+0 0  9997
2 54243   0.0183 275.0971 0000183 329.1783 103.3008  1.00266707  3522
GALAXY 32 (G-32)        
1 54244U 22153B   25173.55482435 -.00000166  00000+0  00000+0 0  9998
2 54244   0.0068 348.4412 0001820  52.1932 339.0770  1.00270688  9532
GALAXY 35 (G-35)        
1 54741U 22170A   25173.55438995 -.00000154  00000+0  00000+0 0  9998
2 54741   0.0213  83.7833 0001783   5.7329 287.9371  1.00271300  9286
GALAXY 36 (G-36)        
1 54742U 22170B   25173.55525876 -.00000177  00000+0  00000+0 0  9999
2 54742   0.0198  27.2093 0002432  70.1340 284.5280  1.00270377  9163
GALAXY 37 (G-37)        
1 57493U 23112A   25173.45414727  .00000056  00000+0  00000+0 0  9998
2 57493   0.0094 338.9413 0001829 113.5658 214.8618  1.00271258  6937
